PANDORA
1 99152U 80229J   26024.98446759  .00000000  00000-0  37770-3 0    03
2 99152  97.7989  25.9298 0003954 228.9310  60.2915 14.87780698    09
